CHUANGXIN 1-02 (CX-1-02)
1 33434U 08056B   26141.57176145  .00000030  00000+0  28516-4 0  9994
2 33434  98.6145 168.1023 0013432 214.6557 145.3751 14.30146971914811
STARS (KUKAI)           
1 33498U 09002G   26141.25760841  .00002809  00000+0  25903-3 0  9995
2 33498  98.1539  87.4739 0006718 256.4563 103.5909 14.95536601934457
KKS-1 (KISEKI)          
1 33499U 09002H   26141.60678660  .00000788  00000+0  10372-3 0  9990
2 33499  98.1194  63.6289 0008529  26.3720 333.7926 14.83043822932259
UK-DMC 2                
1 35683U 09041C   26141.58374287  .00000241  00000+0  42163-4 0  9993
2 35683  97.8805 277.2068 0001580  77.7970 282.3417 14.75978413902644
OCEANSAT-2              
1 35931U 09051A   26141.60678737  .00000310  00000+0  23753-3 0  9990
2 35931  98.2304 131.1128 0014752 316.7601  43.2406 13.99652242875618
SWISSCUBE               
1 35932U 09051B   26141.21168286  .00000644  00000+0  13700-3 0  9992
2 35932  98.4053  48.6290 0005686 305.3397  54.7272 14.62421846885216
BEESAT-1                
1 35933U 09051C   26140.45415592  .00000522  00000+0  11466-3 0  9995
2 35933  98.3982  47.5514 0004510 327.5835  32.5088 14.61668848885136
ITUPSAT1                
1 35935U 09051E   26141.17447264  .00000492  00000+0  11173-3 0  9999
2 35935  98.4067  47.5032 0006862 332.8166  27.2673 14.60394013884797
DMSP 5D-3 F18 (USA 210) 
1 35951U 09057A   26141.55173514  .00000198  00000+0  12562-3 0  9995
2 35951  98.9028 122.3811 0010530 332.7836  27.2784 14.14880308855825
PROBA-2                 
1 36037U 09059B   26141.34913575  .00000096  00000+0  32807-4 0  9991
2 36037  98.2449 325.0747 0013408   9.5483 350.5966 14.54849364877622
YAOGAN-7                
1 36110U 09069A   26141.41489095  .00000289  00000+0  47145-4 0  9992
2 36110  98.0103  27.4432 0025759 123.7440 236.6230 14.77978812885675
XIWANG-1 (HOPE-1)       
1 36122U 09072B   26141.56819292 -.00000528  00000+0 -12672-2 0  9994
2 36122 100.4020  95.8282 0006965 297.8427  62.1980 13.16436193789504
COSMOS 2463             
1 36519U 10017A   26140.85752784  .00000046  00000+0  34341-4 0  9990
2 36519  82.9596 269.7858 0035673 203.8386 325.0932 13.71663620804184
CARTOSAT-2B             
1 36795U 10035A   26141.60976973  .00000114  00000+0  22710-4 0  9991
2 36795  97.9963 192.3265 0010018 278.2891  81.7183 14.78622099855925
TISAT 1                 
1 36799U 10035E   26140.53828391  .00014056  00000+0  47855-3 0  9992
2 36799  98.0706  84.6627 0002805  39.3668 320.7774 15.30538753863477
YAOGAN-10               
1 36834U 10038A   26141.62338897  .00000693  00000+0  87013-4 0  9996
2 36834  97.8988 165.2396 0001533  91.3469  61.2064 14.85254871853269
SHIJIAN-6 04B (SJ-6 04B)
1 37180U 10051B   26141.59400726 -.00000016  00000+0  37234-5 0  9994
2 37180  97.8701 146.7357 0011516  37.7627 322.4401 14.99258532851695
FENGYUN 3B              
1 37214U 10059A   26141.59038391  .00000140  00000+0  95969-4 0  9990
2 37214  98.9630 187.4895 0020954 261.9737 252.3773 14.14834880803664
COSMO-SKYMED 4          
1 37216U 10060A   26141.57456130 -.00000323  00000+0 -33992-4 0  9990
2 37216  97.8885 325.5600 0001384  85.4414 274.6957 14.82157122840622
O/OREOS (USA 219)       
1 37224U 10062C   26141.40714062  .00001276  00000+0  12670-3 0  9999
2 37224  71.9678 140.9940 0012655 121.8354 238.4050 14.93613713112642
RESOURCESAT-2           
1 37387U 11015A   26141.55475901  .00000051  00000+0  43646-4 0  9998
2 37387  98.7652 209.1787 0010702 339.9100  20.1654 14.21605873782390
YOUTHSAT                
1 37388U 11015B   26141.43357061  .00000117  00000+0  66565-4 0  9990
2 37388  98.3670 116.6969 0015643  62.7454  88.8937 14.25617466783822
APRIZESAT 6             
1 37793U 11044F   26141.20004200  .00000395  00000+0  63324-4 0  9999
2 37793  98.2379  51.1472 0043278 170.5241 345.8480 14.76872883793165
JUGNU                   
1 37839U 11058B   26141.12830640  .00000365  00000+0  51021-4 0  9999
2 37839  19.9597 112.8131 0018736 137.3225 309.8735 14.13767814755191
SRMSAT                  
1 37841U 11058D   26141.58428440  .00000353  00000+0  47856-4 0  9991
2 37841  19.9710 220.4956 0011597 271.8763 219.5780 14.11569257754051
