OBJECT_NAME,OBJECT_ID,EPOCH,MEAN_MOTION,ECCENTRICITY,INCLINATION,RA_OF_ASC_NODE,ARG_OF_PERICENTER,MEAN_ANOMALY,EPHEMERIS_TYPE,CLASSIFICATION_TYPE,NORAD_CAT_ID,ELEMENT_SET_NO,REV_AT_EPOCH,BSTAR,MEAN_MOTION_DOT,MEAN_MOTION_DDOT
CHUANGXIN 1-02 (CX-1-02),2008-056B,2026-05-21T13:43:20.189280,14.30146971,.00134321,98.6145,168.1023,214.6557,145.3751,0,U,33434,999,91481,.28515949E-4,.3E-6,0
STARS (KUKAI),2009-002G,2026-05-21T06:10:57.366624,14.95536601,.00067189,98.1539,87.4739,256.4563,103.5909,0,U,33498,999,93445,.25902757E-3,.2809E-4,0
KKS-1 (KISEKI),2009-002H,2026-05-21T14:33:46.362240,14.83043822,.00085291,98.1194,63.6289,26.3720,333.7926,0,U,33499,999,93225,.10372331E-3,.788E-5,0
UK-DMC 2,2009-041C,2026-05-21T14:00:35.383968,14.75978413,.00015803,97.8805,277.2068,77.7970,282.3417,0,U,35683,999,90264,.42162864E-4,.241E-5,0
OCEANSAT-2,2009-051A,2026-05-21T14:33:46.428768,13.99652242,.00147521,98.2304,131.1128,316.7601,43.2406,0,U,35931,999,87561,.23753219E-3,.31E-5,0
SWISSCUBE,2009-051B,2026-05-21T05:04:49.399104,14.62421846,.00056865,98.4053,48.6290,305.3397,54.7272,0,U,35932,999,88521,.13699775E-3,.644E-5,0
BEESAT-1,2009-051C,2026-05-20T10:53:59.071488,14.61668848,.00045104,98.3982,47.5514,327.5835,32.5088,0,U,35933,999,88513,.11465798E-3,.522E-5,0
ITUPSAT1,2009-051E,2026-05-21T04:11:14.436096,14.60394013,.00068628,98.4067,47.5032,332.8166,27.2673,0,U,35935,999,88479,.1117307E-3,.492E-5,0
DMSP 5D-3 F18 (USA 210),2009-057A,2026-05-21T13:14:29.916096,14.14880308,.00105304,98.9028,122.3811,332.7836,27.2784,0,U,35951,999,85582,.12562061E-3,.198E-5,0
PROBA-2,2009-059B,2026-05-21T08:22:45.328800,14.54849364,.00134084,98.2449,325.0747,9.5483,350.5966,0,U,36037,999,87762,.32807136E-4,.96E-6,0
YAOGAN-7,2009-069A,2026-05-21T09:57:26.578080,14.77978812,.00257593,98.0103,27.4432,123.7440,236.6230,0,U,36110,999,88567,.47145272E-4,.289E-5,0
XIWANG-1 (HOPE-1),2009-072B,2026-05-21T13:38:11.868288,13.16436193,.00069654,100.4020,95.8282,297.8427,62.1980,0,U,36122,999,78950,-.12672143E-2,-.528E-5,0
COSMOS 2463,2010-017A,2026-05-20T20:34:50.405376,13.71663620,.00356736,82.9596,269.7858,203.8386,325.0932,0,U,36519,999,80418,.34341002E-4,.46E-6,0
CARTOSAT-2B,2010-035A,2026-05-21T14:38:04.104672,14.78622099,.00100185,97.9963,192.3265,278.2891,81.7183,0,U,36795,999,85592,.22710116E-4,.114E-5,0
TISAT 1,2010-035E,2026-05-20T12:55:07.729824,15.30538753,.00028053,98.0706,84.6627,39.3668,320.7774,0,U,36799,999,86347,.47855205E-3,.14056E-3,0
YAOGAN-10,2010-038A,2026-05-21T14:57:40.807008,14.85254871,.00015337,97.8988,165.2396,91.3469,61.2064,0,U,36834,999,85326,.87013048E-4,.693E-5,0
SHIJIAN-6 04B (SJ-6 04B),2010-051B,2026-05-21T14:15:22.227264,14.99258532,.00115169,97.8701,146.7357,37.7627,322.4401,0,U,37180,999,85169,.3723374E-5,-.16E-6,0
FENGYUN 3B,2010-059A,2026-05-21T14:10:09.169824,14.14834880,.00209544,98.9630,187.4895,261.9737,252.3773,0,U,37214,999,80366,.95968656E-4,.14E-5,0
COSMO-SKYMED 4,2010-060A,2026-05-21T13:47:22.096320,14.82157122,.00013844,97.8885,325.5600,85.4414,274.6957,0,U,37216,999,84062,-.33992144E-4,-.323E-5,0
O/OREOS (USA 219),2010-062C,2026-05-21T09:46:16.949568,14.93613713,.00126553,71.9678,140.9940,121.8354,238.4050,0,U,37224,999,11264,.12669846E-3,.1276E-4,0
RESOURCESAT-2,2011-015A,2026-05-21T13:18:51.178464,14.21605873,.00107029,98.7652,209.1787,339.9100,20.1654,0,U,37387,999,78239,.43645878E-4,.51E-6,0
YOUTHSAT,2011-015B,2026-05-21T10:24:20.500704,14.25617466,.00156431,98.3670,116.6969,62.7454,88.8937,0,U,37388,999,78382,.66564702E-4,.117E-5,0
APRIZESAT 6,2011-044F,2026-05-21T04:48:03.628800,14.76872883,.00432781,98.2379,51.1472,170.5241,345.8480,0,U,37793,999,79316,.63324139E-4,.395E-5,0
JUGNU,2011-058B,2026-05-21T03:04:45.672960,14.13767814,.00187362,19.9597,112.8131,137.3225,309.8735,0,U,37839,999,75519,.51020627E-4,.365E-5,0
SRMSAT,2011-058D,2026-05-21T14:01:22.172160,14.11569257,.00115975,19.9710,220.4956,271.8763,219.5780,0,U,37841,999,75405,.478558E-4,.353E-5,0
